NORAD_CAT_ID,OBJECT_NAME,OBJECT_TYPE,EPOCH,MEAN_MOTION,ECCENTRICITY,INCLINATION,RA_OF_ASC_NODE,ARG_OF_PERICENTER,MEAN_ANOMALY,BSTAR,MEAN_MOTION_DOT,MEAN_MOTION_DDOT,TLE_LINE0,TLE_LINE1,TLE_LINE2,SEMIMAJOR_AXIS,PERIOD,APOGEE,PERIGEE,DECAYED
53290.0,STARLINK-4149,PAYLOAD,2023-02-08 19:59:03,15.08849388,0.0001274,53.2189,193.7977,84.6409,275.4728,5.8855e-05,6.49e-06,0.0,0 STARLINK-4149,1 53290U 22086BA  23039.83267794  .00000649  00000-0  58855-4 0  9994,2 53290  53.2189 193.7977 0001274  84.6409 275.4728 15.08849388 31370,6917.852,95.437,540.598,538.835,0.0
53290.0,STARLINK-4149,PAYLOAD,2023-02-09 16:39:05,15.08839221,0.000109,53.2174,189.9308,91.8407,268.271,8.3372e-06,-1.55e-06,0.0,0 STARLINK-4149,1 53290U 22086BA  23040.69380804 -.00000155  00000-0  83372-5 0  9994,2 53290  53.2174 189.9308 0001090  91.8407 268.2710 15.08839221 31346,6917.883,95.438,540.502,538.994,0.0
53290.0,STARLINK-4149,PAYLOAD,2023-02-10 19:40:37,15.08852653,0.0001262,53.2188,184.8748,110.7969,249.3158,0.00015372,2.16e-05,0.0,0 STARLINK-4149,1 53290U 22086BA  23041.81987815  .00002160  00000-0  15372-3 0  9994,2 53290  53.2188 184.8748 0001262 110.7969 249.3158 15.08852653 31674,6917.842,95.437,540.58,538.834,0.0
53290.0,STARLINK-4149,PAYLOAD,2023-02-11 02:02:11,15.0883289,0.0001118,53.2183,183.6866,97.3318,262.7801,-4.6789e-05,-1.032e-05,0.0,0 STARLINK-4149,1 53290U 22086BA  23042.08485686 -.00001032  00000-0 -46789-4 0  9999,2 53290  53.2183 183.6866 0001118  97.3318 262.7801 15.08832890 31557,6917.902,95.438,540.541,538.994,0.0
53290.0,STARLINK-4149,PAYLOAD,2023-02-11 11:34:30,15.08829061,0.000113,53.2178,181.9021,93.6068,266.5053,5.5735e-06,-1.99e-06,0.0,0 STARLINK-4149,1 53290U 22086BA  23042.48230197 -.00000199  00000-0  55735-5 0  9992,2 53290  53.2178 181.9021 0001130  93.6068 266.5053 15.08829061 31771,6917.914,95.438,540.561,538.997,0.0
53290.0,STARLINK-4149,PAYLOAD,2023-02-11 17:56:05,15.08733323,0.0002332,53.2196,180.718,77.4656,282.6597,0.0017222,0.00027147,0.0,0 STARLINK-4149,1 53290U 22086BA  23042.74728679  .00027147  00000-0  17222-2 0  9995,2 53290  53.2196 180.7180 0002332  77.4656 282.6597 15.08733323 31656,6918.206,95.444,541.685,538.458,0.0
53290.0,STARLINK-4149,PAYLOAD,2023-02-12 05:03:45,15.08875838,0.0001138,53.2182,178.6354,111.8151,248.2963,-0.00053748,-8.84e-05,0.0,0 STARLINK-4149,1 53290U 22086BA  23043.21094076 -.00008840  00000-0 -53748-3 0  9990,2 53290  53.2182 178.6354 0001138 111.8151 248.2963 15.08875838 31727,6917.771,95.435,540.423,538.849,0.0
53290.0,STARLINK-4149,PAYLOAD,2023-02-12 11:25:17,15.08843342,0.0001131,53.2185,177.441,116.7499,243.3609,-5.1176e-05,-1.102e-05,0.0,0 STARLINK-4149,1 53290U 22086BA  23043.47589781 -.00001102  00000-0 -51176-4 0  9998,2 53290  53.2185 177.4410 0001131 116.7499 243.3609 15.08843342 31764,6917.87,95.437,540.518,538.953,0.0
53290.0,STARLINK-4149,PAYLOAD,2023-02-12 17:46:49,15.08856149,0.0001233,53.2185,176.2536,108.2602,251.8525,8.8815e-05,1.126e-05,0.0,0 STARLINK-4149,1 53290U 22086BA  23043.74084573  .00001126  00000-0  88815-4 0  9991,2 53290  53.2185 176.2536 0001233 108.2602 251.8525 15.08856149 31800,6917.831,95.437,540.549,538.843,0.0
53290.0,STARLINK-4149,PAYLOAD,2023-02-13 11:16:04,15.08836483,0.0001682,53.2186,172.9847,88.8268,271.2917,0.00010381,1.364e-05,0.0,0 STARLINK-4149,1 53290U 22086BA  23044.46950046  .00001364  00000-0  10381-3 0  9994,2 53290  53.2186 172.9847 0001682  88.8268 271.2917 15.08836483 31910,6917.891,95.438,540.92,538.593,0.0
53290.0,STARLINK-4149,PAYLOAD,2023-02-13 17:37:35,15.08858531,0.0001374,53.2194,171.7928,112.6505,247.4632,0.00012308,1.672e-05,0.0,0 STARLINK-4149,1 53290U 22086BA  23044.73444338  .00001672  00000-0  12308-3 0  9999,2 53290  53.2194 171.7928 0001374 112.6505 247.4632 15.08858531 31955,6917.824,95.436,540.639,538.738,0.0
53290.0,STARLINK-4149,PAYLOAD,2023-02-14 01:34:32,15.08843103,0.0001309,53.2178,170.3082,98.5046,261.6095,-3.8682e-05,-9.04e-06,0.0,0 STARLINK-4149,1 53290U 22086BA  23045.06565630 -.00000904  00000-0 -38682-4 0  9998,2 53290  53.2178 170.3082 0001309  98.5046 261.6095 15.08843103 32000,6917.871,95.437,540.641,538.83,0.0
53290.0,STARLINK-4149,PAYLOAD,2023-02-14 14:17:38,15.08837268,0.0001417,53.2176,167.9287,98.5113,261.604,7.8e-05,9.54e-06,0.0,0 STARLINK-4149,1 53290U 22086BA  23045.59558028  .00000954  00000-0  78000-4 0  9990,2 53290  53.2176 167.9287 0001417  98.5113 261.6040 15.08837268 32243,6917.889,95.438,540.734,538.773,0.0
53290.0,STARLINK-4149,PAYLOAD,2023-02-14 17:28:23,15.08849649,0.0001427,53.2193,167.3326,108.4195,251.6953,2.432e-05,9.9e-07,0.0,0 STARLINK-4149,1 53290U 22086BA  23045.72805272  .00000099  00000-0  24320-4 0  9997,2 53290  53.2193 167.3326 0001427 108.4195 251.6953 15.08849649 32262,6917.851,95.437,540.703,538.729,0.0
53290.0,STARLINK-4149,PAYLOAD,2023-02-15 14:08:24,15.08842745,0.0001079,53.2173,163.4685,78.4939,281.6174,0.00010225,1.34e-05,0.0,0 STARLINK-4149,1 53290U 22086BA  23046.58917401  .00001340  00000-0  10225-3 0  9998,2 53290  53.2173 163.4685 0001079  78.4939 281.6174 15.08842745 32392,6917.872,95.437,540.483,538.991,0.0
53290.0,STARLINK-4149,PAYLOAD,2023-02-15 18:54:32,15.08870279,0.0001501,53.2174,162.5756,79.1969,280.9192,0.00027225,4.051e-05,0.0,0 STARLINK-4149,1 53290U 22086BA  23046.78787107  .00004051  00000-0  27225-3 0  9998,2 53290  53.2174 162.5756 0001501  79.1969 280.9192 15.08870279 32264,6917.788,95.436,540.691,538.614,0.0
53290.0,STARLINK-4149,PAYLOAD,2023-02-16 12:23:46,15.08860961,0.0001381,53.2174,159.3023,104.8146,255.2999,0.00020034,2.904e-05,0.0,0 STARLINK-4149,1 53290U 22086BA  23047.51651435  .00002904  00000-0  20034-3 0  9990,2 53290  53.2174 159.3023 0001381 104.8146 255.2999 15.08860961 32373,6917.816,95.436,540.637,538.726,0.0
53290.0,STARLINK-4149,PAYLOAD,2023-02-16 17:09:55,15.08867544,0.0001252,53.2185,158.4133,89.6761,270.4374,0.00031468,4.727e-05,0.0,0 STARLINK-4149,1 53290U 22086BA  23047.71522529  .00004727  00000-0  31468-3 0  9991,2 53290  53.2185 158.4133 0001252  89.6761 270.4374 15.08867544 32401,6917.796,95.436,540.527,538.795,0.0
53290.0,STARLINK-4149,PAYLOAD,2023-02-17 13:49:58,15.08836913,6.74e-05,53.2188,154.5465,110.8327,249.2738,-5.2979e-06,-3.72e-06,0.0,0 STARLINK-4149,1 53290U 22086BA  23048.57637306 -.00000372  00000-0 -52979-5 0  9992,2 53290  53.2188 154.5465 0000674 110.8327 249.2738 15.08836913 32539,6917.89,95.438,540.221,539.289,0.0
53290.0,STARLINK-4149,PAYLOAD,2023-02-17 15:25:21,15.08849651,9.02e-05,53.2194,154.2508,104.1811,255.9281,-0.0001798,-3.149e-05,0.0,0 STARLINK-4149,1 53290U 22086BA  23048.64261013 -.00003149  00000-0 -17980-3 0  9994,2 53290  53.2194 154.2508 0000902 104.1811 255.9281 15.08849651 32540,6917.851,95.437,540.34,539.092,0.0
53290.0,STARLINK-4149,PAYLOAD,2023-02-17 18:36:07,15.0885353,9.02e-05,53.2196,153.6537,104.5716,255.5376,-0.00012786,-2.323e-05,0.0,0 STARLINK-4149,1 53290U 22086BA  23048.77508499 -.00002323  00000-0 -12786-3 0  9992,2 53290  53.2196 153.6537 0000902 104.5716 255.5376 15.08853530 32727,6917.839,95.437,540.328,539.08,0.0
53290.0,STARLINK-4149,PAYLOAD,2023-02-18 13:40:47,15.08829654,8.33e-05,53.2191,150.0882,105.6603,254.4482,-0.00027249,-4.62e-05,0.0,0 STARLINK-4149,1 53290U 22086BA  23049.56998958 -.00004620  00000-0 -27249-3 0  9995,2 53290  53.2191 150.0882 0000833 105.6603 254.4482 15.08829654 32845,6917.912,95.438,540.353,539.201,0.0
53290.0,STARLINK-4149,PAYLOAD,2023-02-18 18:26:55,15.08841909,7.55e-05,53.2184,149.1944,100.8835,259.2242,-0.00016138,-2.855e-05,0.0,0 STARLINK-4149,1 53290U 22086BA  23049.76869990 -.00002855  00000-0 -16138-3 0  9993,2 53290  53.2184 149.1944 0000755 100.8835 259.2242 15.08841909 32712,6917.875,95.437,540.262,539.217,0.0
53290.0,STARLINK-4149,PAYLOAD,2023-02-19 13:31:32,15.08847119,5.74e-05,53.2167,145.6268,119.734,240.371,0.00022778,3.34e-05,0.0,0 STARLINK-4149,1 53290U 22086BA  23050.56357474  .00003340  00000-0  22778-3 0  9997,2 53290  53.2167 145.6268 0000574 119.7340 240.3710 15.08847119 32992,6917.859,95.437,540.121,539.327,0.0
53290.0,STARLINK-4149,PAYLOAD,2023-02-19 23:03:52,15.08838573,7.87e-05,53.2195,143.8421,99.6114,260.4968,7.0881e-05,8.41e-06,0.0,0 STARLINK-4149,1 53290U 22086BA  23050.96102419  .00000841  00000-0  70881-4 0  9990,2 53290  53.2195 143.8421 0000787  99.6114 260.4968 15.08838573 32896,6917.885,95.438,540.294,539.205,0.0
53290.0,STARLINK-4149,PAYLOAD,2023-02-20 13:22:21,15.0883681,8.45e-05,53.218,141.1679,95.3796,264.7292,0.00017955,2.571e-05,0.0,0 STARLINK-4149,1 53290U 22086BA  23051.55719041  .00002571  00000-0  17955-3 0  9995,2 53290  53.2180 141.1679 0000845  95.3796 264.7292 15.08836810 33148,6917.89,95.438,540.34,539.171,0.0
53290.0,STARLINK-4149,PAYLOAD,2023-02-21 05:16:12,15.08842583,5.3e-05,53.2189,138.1928,118.2582,241.8464,0.00013223,1.818e-05,0.0,0 STARLINK-4149,1 53290U 22086BA  23052.21958517  .00001818  00000-0  13223-3 0  9999,2 53290  53.2189 138.1928 0000530 118.2582 241.8464 15.08842583 33083,6917.872,95.437,540.104,539.371,0.0
53290.0,STARLINK-4149,PAYLOAD,2023-02-21 13:13:06,15.08858116,8.43e-05,53.2186,136.7078,82.6422,277.4666,0.00011243,1.503e-05,0.0,0 STARLINK-4149,1 53290U 22086BA  23052.55077487  .00001503  00000-0  11243-3 0  9995,2 53290  53.2186 136.7078 0000843  82.6422 277.4666 15.08858116 33138,6917.825,95.436,540.273,539.107,0.0
53290.0,STARLINK-4149,PAYLOAD,2023-02-21 14:48:29,15.08864247,9.15e-05,53.218,136.4093,84.6175,275.4922,0.00020482,2.976e-05,0.0,0 STARLINK-4149,1 53290U 22086BA  23052.61701110  .00002976  00000-0  20482-3 0  9999,2 53290  53.2180 136.4093 0000915  84.6175 275.4922 15.08864247 33307,6917.806,95.436,540.304,539.038,0.0
53290.0,STARLINK-4149,PAYLOAD,2023-02-21 22:45:25,15.08850455,8.85e-05,53.2181,134.9221,86.6532,273.4562,6.7209e-06,-1.81e-06,0.0,0 STARLINK-4149,1 53290U 22086BA  23052.94821595 -.00000181  00000-0  67209-5 0  9992,2 53290  53.2181 134.9221 0000885  86.6532 273.4562 15.08850455 33190,6917.848,95.437,540.326,539.101,0.0
